COMMENT,ORIGINATOR,NORAD_CAT_ID,OBJECT_NAME,OBJECT_TYPE,CLASSIFICATION_TYPE,INTLDES,EPOCH,EPOCH_MICROSECONDS,MEAN_MOTION,ECCENTRICITY,INCLINATION,RA_OF_ASC_NODE,ARG_OF_PERICENTER,MEAN_ANOMALY,EPHEMERIS_TYPE,ELEMENT_SET_NO,REV_AT_EPOCH,BSTAR,MEAN_MOTION_DOT,MEAN_MOTION_DDOT,FILE,TLE_LINE0,TLE_LINE1,TLE_LINE2,OBJECT_ID,OBJECT_NUMBER,SEMIMAJOR_AXIS,PERIOD,APOGEE,PERIGEE
"GENERATED VIA SPACETRACK.ORG API","JSPOC","27535","SL-8 R/B","ROCKET BODY","U","02046B","2016-01-10 18:54:42","868224","13.74321673","0.003799","82.9325","254.3337","81.2478","322.1777","0","999","66667","4.9616e-05","6.3e-07","0","1978681","0 SL-8 R/B","1 27535U 02046B   16010.78799616  .00000063  00000-0  49616-4 0  9994","2 27535  82.9325 254.3337 0037990  81.2478 322.1777 13.74321673666675","2002-046B","27535","7362.233","104.778","1012.067","956.129"
"GENERATED VIA SPACETRACK.ORG API","JSPOC","28057","CBERS 2","PAYLOAD","U","03049A","2016-01-10 18:54:46","948032","14.35482685","0.0001329","98.2595","340.0182","37.2201","322.9077","0","999","64042","4.0237e-05","7.4e-07","0","1978716","0 CBERS 2","1 28057U 03049A   16010.78804338  .00000074  00000-0  40237-4 0  9998","2 28057  98.2595 340.0182 0001329  37.2201 322.9077 14.35482685640422","2003-049A","28057","7151.599","100.314","774.415","772.514"
"GENERATED VIA SPACETRACK.ORG API","JSPOC","19073","COSMOS 1940","PAYLOAD","U","88034A","2016-01-10 18:54:52","460352","1.00653389","0.0022308","14.7834","0.8385","193.2259","4.1962","0","999","8299","0","-1.7e-07","0","1979034","0 COSMOS 1940","1 19073U 88034A   16010.78810718 -.00000017 +00000-0 +00000-0 0  9990","2 19073 014.7834 000.8385 0022308 193.2259 004.1962 01.00653389082994","1988-034A","19073","42058.092","1430.652","35773.780","35586.134"
"GENERATED VIA SPACETRACK.ORG API","JSPOC","4369","COSMOS 332","PAYLOAD","U","70028A","2016-01-10 18:54:54","869184","14.51316924","0.0006445","74.0358","240.6072","328.0997","31.9773","0","999","41512","3.0558e-05","9.4e-07","0","1979034","0 COSMOS 332","1  4369U 70028A   16010.78813506 +.00000094 +00000-0 +30558-4 0  9993","2  4369 074.0358 240.6072 0006445 328.0997 031.9773 14.51316924415128","1970-028A","4369","7099.487","99.220","725.928","716.776"
"GENERATED VIA SPACETRACK.ORG API","JSPOC","12108","COSMOS 1229","PAYLOAD","U","80102B","2016-01-10 18:55:03","466848","12.56065422","0.0031163","73.9943","124.534","129.3321","26.4271","0","999","60717","3.0938e-06","-1.6e-07","0","1978700","0 COSMOS 1229","1 12108U 80102B   16010.78823457 -.00000016  00000-0  30938-5 0  9991","2 12108  73.9943 124.5340 0031163 129.3321  26.4271 12.56065422607179","1980-102B","12108","7817.364","114.643","1463.590","1414.867"
"GENERATED VIA SPACETRACK.ORG API","JSPOC","14033","SL-14 R/B","ROCKET BODY","U","83037B","2016-01-10 18:55:05","467872","14.83585967","0.0018812","82.5086","118.2725","43.3739","316.8952","0","999","40200","1.9873e-05","1.88e-06","0","1978652","0 SL-14 R/B","1 14033U 83037B   16010.78825773  .00000188  00000-0  19873-4 0  9996","2 14033  82.5086 118.2725 0018812  43.3739 316.8952 14.83585967402003","1983-037B","14033","6996.164","97.062","631.190","604.868"
"GENERATED VIA SPACETRACK.ORG API","JSPOC","19902","COSMOS 2008","PAYLOAD","U","89025A","2016-01-10 18:55:09","369696","12.57811562","0.0050622","74.0098","142.52","310.388","218.7169","0","999","23042","-8.2071e-05","-3e-07","0","1979034","0 COSMOS 2008","1 19902U 89025A   16010.78830289 -.00000030 +00000-0 -82071-4 0  9995","2 19902 074.0098 142.5200 0050622 310.3880 218.7169 12.57811562230426","1989-025A","19902","7810.127","114.484","1471.528","1392.455"
"GENERATED VIA SPACETRACK.ORG API","JSPOC","26696","ARIANE 44L R/B","ROCKET BODY","U","01005C","2016-01-10 18:55:27","802272","2.53574313","0.7062561","7.0339","98.0855","147.5678","287.6994","0","999","12983","0.0013147","2.575e-05","0","1979034","0 ARIANE 44L R/B","1 26696U 01005C   16010.78851623 +.00002575 +00000-0 +13147-2 0  9990","2 26696 007.0339 098.0855 7062561 147.5678 287.6994 02.53574313129834","2001-005C","26696","22715.990","567.880","32381.161","294.548"
"GENERATED VIA SPACETRACK.ORG API","JSPOC","25852","GLOBALSTAR M032","PAYLOAD","U","99037B","2016-01-10 18:55:28","567776","11.19019048","0.0001058","51.9927","241.1476","68.9159","291.1754","0","999","74906","0.0013059","-2.6e-07","0","1979034","0 GLOBALSTAR M032","1 25852U 99037B   16010.78852509 -.00000026 +00000-0 +13059-2 0  9991","2 25852 051.9927 241.1476 0001058 068.9159 291.1754 11.19019048749063","1999-037B","25852","8443.260","128.684","2066.018","2064.232"
"GENERATED VIA SPACETRACK.ORG API","JSPOC","309","TIROS 5","PAYLOAD","U","62025A","2016-01-10 18:55:40","316448","14.56496596","0.0200187","58.0907","118.6914","77.2245","285.1071","0","999","82632","3.119e-05","-3.1e-07","0","1979034","0 TIROS 5","1   309U 62025A   16010.78866107 -.00000031 +00000-0 +31190-4 0  9991","2   309 058.0907 118.6914 0200187 077.2245 285.1071 14.56496596826328","1962-025A","309","7082.645","98.867","846.296","562.725"
"GENERATED VIA SPACETRACK.ORG API","JSPOC","39228","SL-24 R/B","ROCKET BODY","U","13042B","2016-01-10 18:56:13","671168","14.06047764","0.0458819","97.5316","69.1067","166.3476","195.0612","0","999","11858","0.00013307","5.31e-06","0","1979034","0 SL-24 R/B","1 39228U 13042B   16010.78904712 +.00000531 +00000-0 +13307-3 0  9996","2 39228 097.5316 069.1067 0458819 166.3476 195.0612 14.06047764118580","2013-042B","39228","7251.064","102.414","1205.622","540.237"
"GENERATED VIA SPACETRACK.ORG API","JSPOC","14820","SL-14 R/B","ROCKET BODY","U","84027B","2016-01-10 18:56:30","697152","14.83442346","0.001854","82.5442","114.1849","352.2942","7.7985","0","999","71836","1.992e-05","1.88e-06","0","1978656","0 SL-14 R/B","1 14820U 84027B   16010.78924418  .00000188  00000-0  19920-4 0  9999","2 14820  82.5442 114.1849 0018540 352.2942   7.7985 14.83442346718365","1984-027B","14820","6996.616","97.071","631.453","605.509"
"GENERATED VIA SPACETRACK.ORG API","JSPOC","32399","SL-12 R/B(AUX MOTOR)","ROCKET BODY","U","07065G","2016-01-10 18:56:33","232992","4.23825943","0.5631747","65.187","88.4107","58.7161","7.623","0","999","12420","-0.00012784","-4.8e-07","0","1979034","0 SL-12 R/B(AUX MOTOR)","1 32399U 07065G   16010.78927353 -.00000048 +00000-0 -12784-3 0  9995","2 32399 065.1870 088.4107 5631747 058.7161 007.6230 04.23825943124201","2007-065G","32399","16129.100","339.762","18834.466","667.464"
"GENERATED VIA SPACETRACK.ORG API","JSPOC","26080","PICOSAT 1&2 (TETHERED)","PAYLOAD","U","00004H","2016-01-10 18:56:43","536192","14.42676275","0.0030949","100.2004","319.0784","237.2486","122.5715","0","999","83697","9.742e-05","2.66e-06","0","1978714","0 PICOSAT 1&2 (TETHERED)","1 26080U 00004H   16010.78939278  .00000266  00000-0  97420-4 0  9991","2 26080 100.2004 319.0784 0030949 237.2486 122.5715 14.42676275836974","2000-004H","26080","7127.806","99.814","771.731","727.611"
"GENERATED VIA SPACETRACK.ORG API","JSPOC","19170","SL-12 R/B(AUX MOTOR)","ROCKET BODY","U","88043H","2016-01-10 18:56:49","932384","4.24783181","0.5728843","64.9335","212.1352","208.6812","101.8989","0","999","42813","3.2721e-05","9.2e-07","0","1978757","0 SL-12 R/B(AUX MOTOR)","1 19170U 88043H   16010.78946681  .00000092  00000-0  32721-4 0  9998","2 19170  64.9335 212.1352 5728843 208.6812 101.8989  4.24783181428132","1988-043H","19170","16104.860","338.996","18952.947","500.503"
"GENERATED VIA SPACETRACK.ORG API","JSPOC","19170","SL-12 R/B(AUX MOTOR)","ROCKET BODY","U","88043H","2016-01-10 18:56:49","932384","4.24783181","0.5728843","64.9335","212.1352","208.6812","101.8989","0","999","42814","3.2721e-05","9.2e-07","0","1979034","0 SL-12 R/B(AUX MOTOR)","1 19170U 88043H   16010.78946681 +.00000092 +00000-0 +32721-4 0  9998","2 19170 064.9335 212.1352 5728843 208.6812 101.8989 04.24783181428143","1988-043H","19170","16104.860","338.996","18952.947","500.503"
"GENERATED VIA SPACETRACK.ORG API","JSPOC","19531","NOAA 11","PAYLOAD","U","88089A","2016-01-10 18:56:50","875872","14.15175595","0.0012303","98.6231","82.6224","99.0801","261.1766","0","999","40872","1.8281e-05","-7e-08","0","1978738","0 NOAA 11","1 19531U 88089A   16010.78947773 -.00000007  00000-0  18281-4 0  9994","2 19531  98.6231  82.6224 0012303  99.0801 261.1766 14.15175595408723","1988-089A","19531","7219.851","101.754","850.599","832.834"
"GENERATED VIA SPACETRACK.ORG API","JSPOC","19531","NOAA 11","PAYLOAD","U","88089A","2016-01-10 18:56:50","875872","14.15175595","0.0012303","98.6231","82.6224","99.0801","261.1766","0","999","40847","1.8281e-05","-7e-08","0","1979034","0 NOAA 11","1 19531U 88089A   16010.78947773 -.00000007 +00000-0 +18281-4 0  9994","2 19531 098.6231 082.6224 0012303 099.0801 261.1766 14.15175595408475","1988-089A","19531","7219.851","101.754","850.599","832.834"
"GENERATED VIA SPACETRACK.ORG API","JSPOC","39153","CUBEBUG 1","PAYLOAD","U","13018D","2016-01-10 18:56:56","114304","14.79656435","0.001599","98.0066","99.4998","304.4943","55.4757","0","999","14617","9.8397e-05","6.86e-06","0","1978714","0 CUBEBUG 1","1 39153U 13018D   16010.78953836  .00000686  00000-0  98397-4 0  9991","2 39153  98.0066  99.4998 0015990 304.4943  55.4757 14.79656435146173","2013-018D","39153","7008.545","97.319","641.617","619.204"
"GENERATED VIA SPACETRACK.ORG API","JSPOC","39769","RISING 2","PAYLOAD","U","14029D","2016-01-10 18:57:28","599840","14.81595399","0.0004286","97.8748","107.9819","161.391","198.7462","0","999","8831","5.113e-05","3.5e-06","0","1979034","0 RISING 2","1 39769U 14029D   16010.78991435 +.00000350 +00000-0 +51130-4 0  9996","2 39769 097.8748 107.9819 0004286 161.3910 198.7462 14.81595399088316","2014-029D","39769","7002.429","97.192","627.295","621.293"
